OBJECT_NAME,OBJECT_ID,EPOCH,MEAN_MOTION,ECCENTRICITY,INCLINATION,RA_OF_ASC_NODE,ARG_OF_PERICENTER,MEAN_ANOMALY,EPHEMERIS_TYPE,CLASSIFICATION_TYPE,NORAD_CAT_ID,ELEMENT_SET_NO,REV_AT_EPOCH,BSTAR,MEAN_MOTION_DOT,MEAN_MOTION_DDOT
SAUDISAT 1C (SO-50),2002-058C,2026-06-09T06:22:34.107456,14.83029337,.00754352,64.5504,153.4942,263.9417,95.3090,0,U,27607,999,26328,.12670693E-3,.928E-5,0
SAUDISAT 2,2004-025F,2026-06-09T06:24:34.913664,14.56679188,.00239427,98.5506,160.0444,323.5430,36.4136,0,U,28371,999,16459,.65990062E-4,.246E-5,0
SAUDISAT 3,2007-012B,2026-06-09T07:15:29.210688,14.71421056,.00133281,98.1453,110.6981,251.1843,108.7918,0,U,31118,999,2658,.48174529E-4,.247E-5,0
PISAT,2016-059B,2026-06-09T05:49:17.712768,14.68969728,.00278204,97.8179,161.0369,229.0043,130.8757,0,U,41784,999,51857,.15113495E-3,.843E-5,0
FLYING LAPTOP,2017-042G,2026-06-09T07:40:29.463744,15.01094180,.00191565,97.4658,316.1579,147.3152,212.9263,0,U,42831,999,48527,.27256694E-3,.3443E-4,0
SALSAT,2020-068K,2026-06-08T21:41:10.423968,15.29680035,.00088073,97.8856,162.4647,341.8369,18.2554,0,U,46495,999,31409,.27003831E-3,.769E-4,0
