SAUDISAT 1C (SO-50)     
1 27607U 02058C   26160.26567254  .00000928  00000+0  12671-3 0  9997
2 27607  64.5504 153.4942 0075435 263.9417  95.3090 14.83029337263289
SAUDISAT 2              
1 28371U 04025F   26160.26707076  .00000246  00000+0  65990-4 0  9996
2 28371  98.5506 160.0444 0023942 323.5430  36.4136 14.56679188164598
SAUDISAT 3              
1 31118U 07012B   26160.30242142  .00000247  00000+0  48175-4 0  9998
2 31118  98.1453 110.6981 0013328 251.1843 108.7918 14.71421056 26589
PISAT                   
1 41784U 16059B   26160.24256612  .00000843  00000+0  15113-3 0  9996
2 41784  97.8179 161.0369 0027820 229.0043 130.8757 14.68969728518579
FLYING LAPTOP           
1 42831U 17042G   26160.31978546  .00003443  00000+0  27257-3 0  9999
2 42831  97.4658 316.1579 0019156 147.3152 212.9263 15.01094180485276
SALSAT                  
1 46495U 20068K   26159.90359287  .00007690  00000+0  27004-3 0  9997
2 46495  97.8856 162.4647 0008807 341.8369  18.2554 15.29680035314091
